ONEWEB-0275             
1 48993U 21060AC  25298.93080670  .00000101  00000+0  22982-3 0  9998
2 48993  87.8986 275.4392 0001824  88.2219 271.9121 13.16595355208734
ONEWEB-0276             
1 48994U 21060AD  25298.96405107 -.00000001  00000+0 -36711-4 0  9995
2 48994  87.8986 275.4314 0002089  86.6504 273.4866 13.16594943208759
ONEWEB-0277             
1 48995U 21060AE  25298.97675406 -.00000040  00000+0 -13810-3 0  9995
2 48995  87.8974 275.4580 0001776  93.2968 266.8366 13.16593189208743
ONEWEB-0278             
1 48996U 21060AF  25298.96720431 -.00001698  00000+0 -44766-2 0  9997
2 48996  87.8980 275.4264 0002163  86.2396 273.8982 13.16598721208871
ONEWEB-0279             
1 48997U 21060AG  25298.97512614 -.00000031  00000+0 -11464-3 0  9991
2 48997  87.8993 275.4212 0001818  95.7277 264.4061 13.16592600208805
ONEWEB-0280             
1 48998U 21060AH  25298.91419267  .00000035  00000+0  57528-4 0  9990
2 48998  87.8983 275.4413 0002287  87.4682 272.6711 13.16592519208731
ONEWEB-0281             
1 48999U 21060AJ  25298.91971145  .00000049  00000+0  93739-4 0  9998
2 48999  87.8984 275.4362 0001781  85.2865 274.8469 13.16592224208808
ONEWEB-0282             
1 49000U 21060AK  25298.94981011  .00000063  00000+0  13109-3 0  9996
2 49000  87.8986 275.4412 0002020  90.2361 269.9001 13.16594868208784
